{"type": "FeatureCollection", "features": [ {"type": "Feature", "properties": {"norad_id": 37867, "name": "COSMOS 2476 (744)", "group": "gnss", "lat": 58.46847019631655, "lon": -149.902239507107, "alt_km": 19158.61757303053, "timestamp": "2025-12-18T10:51:26.046417+00:00", "meta": {"OBJECT_NAME": "COSMOS 2476 (744)", "OBJECT_ID": "2011-064A", "EPOCH": "2025-12-17T08:37:38.728128", "MEAN_MOTION": 2.13103706, "ECCENTRICITY": 0.00243783, "INCLINATION": 65.1645, "RA_OF_ASC_NODE": 79.0153, "ARG_OF_PERICENTER": 234.8774, "MEAN_ANOMALY": 116.9996, "EPHEMERIS_TYPE": 0, "CLASSIFICATION_TYPE": "U", "NORAD_CAT_ID": 37867, "ELEMENT_SET_NO": 999, "REV_AT_EPOCH": 10988, "BSTAR": 0, "MEAN_MOTION_DOT": -4.8e-07, "MEAN_MOTION_DDOT": 0}, "tle": {"line1": "1 37867U 11064A   25351.35947602 -.00000048  00000+0  00000+0 0  9996", "line2": "2 37867  65.1645  79.0153 0024378 234.8774 116.9996  2.13103706109884"}}, "geometry": {"type": "Point", "coordinates": [-149.902239507107, 58.46847019631655]}}, {"type": "Feature", "properties": {"norad_id": 37868, "name": "COSMOS 2477 (745)", "group": "gnss", "lat": -57.66823749748546, "lon": 32.168277011921, "alt_km": 19106.40472019309, "timestamp": "2025-12-18T10:51:26.046430+00:00", "meta": {"OBJECT_NAME": "COSMOS 2477 (745)", "OBJECT_ID": "2011-064B", "EPOCH": "2025-12-17T02:26:26.820384", "MEAN_MOTION": 2.13102893, "ECCENTRICITY": 0.0021195, "INCLINATION": 65.1716, "RA_OF_ASC_NODE": 79.1012, "ARG_OF_PERICENTER": 234.7168, "MEAN_ANOMALY": 100.3174, "EPHEMERIS_TYPE": 0, "CLASSIFICATION_TYPE": "U", "NORAD_CAT_ID": 37868, "ELEMENT_SET_NO": 999, "REV_AT_EPOCH": 10987, "BSTAR": 0, "MEAN_MOTION_DOT": -5e-07, "MEAN_MOTION_DDOT": 0}, "tle": {"line1": "1 37868U 11064B   25351.10169931 -.00000050  00000+0  00000+0 0  9994", "line2": "2 37868  65.1716  79.1012 0021195 234.7168 100.3174  2.13102893109879"}}, "geometry": {"type": "Point", "coordinates": [32.168277011921, -57.66823749748546]}}, {"type": "Feature", "properties": {"norad_id": 37869, "name": "COSMOS 2475 (743)", "group": "gnss", "lat": -56.790140794231526, "lon": -56.02708493191696, "alt_km": 19068.944482041756, "timestamp": "2025-12-18T10:51:26.046451+00:00", "meta": {"OBJECT_NAME": "COSMOS 2475 (743)", "OBJECT_ID": "2011-064C", "EPOCH": "2025-12-16T17:15:16.173216", "MEAN_MOTION": 2.1310159, "ECCENTRICITY": 0.00263578, "INCLINATION": 65.1784, "RA_OF_ASC_NODE": 79.1342, "ARG_OF_PERICENTER": 248.7608, "MEAN_ANOMALY": 108.5583, "EPHEMERIS_TYPE": 0, "CLASSIFICATION_TYPE": "U", "NORAD_CAT_ID": 37869, "ELEMENT_SET_NO": 999, "REV_AT_EPOCH": 10987, "BSTAR": 0, "MEAN_MOTION_DOT": -5.2e-07, "MEAN_MOTION_DDOT": 0}, "tle": {"line1": "1 37869U 11064C   25350.71893719 -.00000052  00000+0  00000+0 0  9991", "line2": "2 37869  65.1784  79.1342 0026357 248.7608 108.5583  2.13101590109877"}}, "geometry": {"type": "Point", "coordinates": [-56.02708493191696, -56.790140794231526]}}, {"type": "Feature", "properties": {"norad_id": 37948, "name": "BEIDOU-2 IGSO-5 (C10)", "group": "gnss", "lat": 44.017111598895276, "lon": -25.971362738100705, "alt_km": 36187.80376006, "timestamp": "2025-12-18T10:51:26.046464+00:00", "meta": {"OBJECT_NAME": "BEIDOU-2 IGSO-5 (C10)", "OBJECT_ID": "2011-073A", "EPOCH": "2025-12-17T16:24:35.912736", "MEAN_MOTION": 1.00290385, "ECCENTRICITY": 0.01100136, "INCLINATION": 48.0109, "RA_OF_ASC_NODE": 273.7976, "ARG_OF_PERICENTER": 222.3587, "MEAN_ANOMALY": 289.8191, "EPHEMERIS_TYPE": 0, "CLASSIFICATION_TYPE": "U", "NORAD_CAT_ID": 37948, "ELEMENT_SET_NO": 999, "REV_AT_EPOCH": 5131, "BSTAR": 0, "MEAN_MOTION_DOT": -1.81e-06, "MEAN_MOTION_DDOT": 0}, "tle": {"line1": "1 37948U 11073A   25351.68374899 -.00000181  00000+0  00000+0 0  9992", "line2": "2 37948  48.0109 273.7976 0110013 222.3587 289.8191  1.00290385 51317"}}, "geometry": {"type": "Point", "coordinates": [-25.971362738100705, 44.017111598895276]}}, {"type": "Feature", "properties": {"norad_id": 37951, "name": "LUCH 5A (SDCM/PRN 140)", "group": "gnss", "lat": -2.7001984887944332, "lon": 57.470716061732396, "alt_km": 35806.35894492621, "timestamp": "2025-12-18T10:51:26.046480+00:00", "meta": {"OBJECT_NAME": "LUCH 5A (SDCM/PRN 140)", "OBJECT_ID": "2011-074B", "EPOCH": "2025-12-17T22:40:56.797248", "MEAN_MOTION": 1.0026899, "ECCENTRICITY": 0.00051, "INCLINATION": 8.2929, "RA_OF_ASC_NODE": 76.5065, "ARG_OF_PERICENTER": 188.5436, "MEAN_ANOMALY": 329.094, "EPHEMERIS_TYPE": 0, "CLASSIFICATION_TYPE": "U", "NORAD_CAT_ID": 37951, "ELEMENT_SET_NO": 999, "REV_AT_EPOCH": 5123, "BSTAR": 0, "MEAN_MOTION_DOT": -3.1e-07, "MEAN_MOTION_DDOT": 0}, "tle": {"line1": "1 37951U 11074B   25351.94510182 -.00000031  00000+0  00000+0 0  9997", "line2": "2 37951   8.2929  76.5065 0005100 188.5436 329.0940  1.00268990 51230"}}, "geometry": {"type": "Point", "coordinates": [57.470716061732396, -2.7001984887944332]}}, {"type": "Feature", "properties": {"norad_id": 38091, "name": "BEIDOU-2 G5 (C05)", "group": "gnss", "lat": -2.67473761988306, "lon": -51.056165805930775, "alt_km": 35733.13137888023, "timestamp": "2025-12-18T10:51:26.046492+00:00", "meta": {"OBJECT_NAME": "BEIDOU-2 G5 (C05)", "OBJECT_ID": "2012-008A", "EPOCH": "2025-12-17T20:12:47.726784", "MEAN_MOTION": 1.00268007, "ECCENTRICITY": 0.0012979, "INCLINATION": 3.1217, "RA_OF_ASC_NODE": 70.6937, "ARG_OF_PERICENTER": 231.0033, "MEAN_ANOMALY": 147.0186, "EPHEMERIS_TYPE": 0, "CLASSIFICATION_TYPE": "U", "NORAD_CAT_ID": 38091, "ELEMENT_SET_NO": 999, "REV_AT_EPOCH": 5055, "BSTAR": 0, "MEAN_MOTION_DOT": 7.9e-07, "MEAN_MOTION_DDOT": 0}, "tle": {"line1": "1 38091U 12008A   25351.84221906  .00000079  00000+0  00000+0 0  9994", "line2": "2 38091   3.1217  70.6937 0012979 231.0033 147.0186  1.00268007 50555"}}, "geometry": {"type": "Point", "coordinates": [-51.056165805930775, -2.67473761988306]}}, {"type": "Feature", "properties": {"norad_id": 38250, "name": "BEIDOU-2 M3 (C11)", "group": "gnss", "lat": 27.49189363305087, "lon": 110.32582311569735, "alt_km": 21567.16700402758, "timestamp": "2025-12-18T10:51:26.046504+00:00", "meta": {"OBJECT_NAME": "BEIDOU-2 M3 (C11)", "OBJECT_ID": "2012-018A", "EPOCH": "2025-12-17T03:50:10.506912", "MEAN_MOTION": 1.86229968, "ECCENTRICITY": 0.00242614, "INCLINATION": 55.9161, "RA_OF_ASC_NODE": 311.0085, "ARG_OF_PERICENTER": 274.7282, "MEAN_ANOMALY": 84.9799, "EPHEMERIS_TYPE": 0, "CLASSIFICATION_TYPE": "U", "NORAD_CAT_ID": 38250, "ELEMENT_SET_NO": 999, "REV_AT_EPOCH": 9255, "BSTAR": 0, "MEAN_MOTION_DOT": -9.2e-07, "MEAN_MOTION_DDOT": 0}, "tle": {"line1": "1 38250U 12018A   25351.15984383 -.00000092  00000+0  00000+0 0  9997", "line2": "2 38250  55.9161 311.0085 0024261 274.7282  84.9799  1.86229968 92550"}}, "geometry": {"type": "Point", "coordinates": [110.32582311569735, 27.49189363305087]}}, {"type": "Feature", "properties": {"norad_id": 38251, "name": "BEIDOU-2 M4 (C12)", "group": "gnss", "lat": -9.757314538525005, "lon": 136.8761602691374, "alt_km": 21526.977967107163, "timestamp": "2025-12-18T10:51:26.046515+00:00", "meta": {"OBJECT_NAME": "BEIDOU-2 M4 (C12)", "OBJECT_ID": "2012-018B", "EPOCH": "2025-12-17T02:12:20.463264", "MEAN_MOTION": 1.8622963, "ECCENTRICITY": 0.00154606, "INCLINATION": 55.8177, "RA_OF_ASC_NODE": 310.2392, "ARG_OF_PERICENTER": 278.1113, "MEAN_ANOMALY": 81.6986, "EPHEMERIS_TYPE": 0, "CLASSIFICATION_TYPE": "U", "NORAD_CAT_ID": 38251, "ELEMENT_SET_NO": 999, "REV_AT_EPOCH": 9255, "BSTAR": 0, "MEAN_MOTION_DOT": -9.2e-07, "MEAN_MOTION_DDOT": 0}, "tle": {"line1": "1 38251U 12018B   25351.09190351 -.00000092  00000+0  00000+0 0  9995", "line2": "2 38251  55.8177 310.2392 0015460 278.1113  81.6986  1.86229630 92559"}}, "geometry": {"type": "Point", "coordinates": [136.8761602691374, -9.757314538525005]}}, {"type": "Feature", "properties": {"norad_id": 38652, "name": "SES-5 (EGNOS/PRN 136)", "group": "gnss", "lat": -0.06723408359469708, "lon": -104.8717013249628, "alt_km": 35779.52336277858, "timestamp": "2025-12-18T10:51:26.046528+00:00", "meta": {"OBJECT_NAME": "SES-5 (EGNOS/PRN 136)", "OBJECT_ID": "2012-036A", "EPOCH": "2025-12-17T18:29:07.902240", "MEAN_MOTION": 1.00268121, "ECCENTRICITY": 0.00018174, "INCLINATION": 0.057, "RA_OF_ASC_NODE": 306.4923, "ARG_OF_PERICENTER": 320.0276, "MEAN_ANOMALY": 102.3851, "EPHEMERIS_TYPE": 0, "CLASSIFICATION_TYPE": "U", "NORAD_CAT_ID": 38652, "ELEMENT_SET_NO": 999, "REV_AT_EPOCH": 4263, "BSTAR": 0, "MEAN_MOTION_DOT": 5.8e-07, "MEAN_MOTION_DDOT": 0}, "tle": {"line1": "1 38652U 12036A   25351.77023035  .00000058  00000+0  00000+0 0  9990", "line2": "2 38652   0.0570 306.4923 0001817 320.0276 102.3851  1.00268121 42638"}}, "geometry": {"type": "Point", "coordinates": [-104.8717013249628, -0.06723408359469708]}}, {"type": "Feature", "properties": {"norad_id": 38775, "name": "BEIDOU-2 M6 (C14)", "group": "gnss", "lat": 21.431588163291767, "lon": 84.00455945372025, "alt_km": 21502.160555012633, "timestamp": "2025-12-18T10:51:26.046539+00:00", "meta": {"OBJECT_NAME": "BEIDOU-2 M6 (C14)", "OBJECT_ID": "2012-050B", "EPOCH": "2025-12-16T19:16:00.374304", "MEAN_MOTION": 1.86230897, "ECCENTRICITY": 0.00113573, "INCLINATION": 56.3818, "RA_OF_ASC_NODE": 68.9326, "ARG_OF_PERICENTER": 343.3915, "MEAN_ANOMALY": 16.5942, "EPHEMERIS_TYPE": 0, "CLASSIFICATION_TYPE": "U", "NORAD_CAT_ID": 38775, "ELEMENT_SET_NO": 999, "REV_AT_EPOCH": 8991, "BSTAR": 0, "MEAN_MOTION_DOT": -7.7e-07, "MEAN_MOTION_DDOT": 0}, "tle": {"line1": "1 38775U 12050B   25350.80278211 -.00000077  00000+0  00000+0 0  9995", "line2": "2 38775  56.3818  68.9326 0011357 343.3915  16.5942  1.86230897 89910"}}, "geometry": {"type": "Point", "coordinates": [84.00455945372025, 21.431588163291767]}}]}